MEAN_MOTION;ECCENTRICITY;INCLINATION;RA_OF_ASC_NODE;ARG_OF_PERICENTER;MEAN_ANOMALY;BSTAR;MEAN_MOTION_DOT;MEAN_MOTION_DDOT;TYPE
11.19033979;0.0001039;51.9941;91.693;308.1293;51.9413;-0.0006603;-8.7E-7;0;Globalstar
11.19034103;0.0001056;51.9942;90.2554;310.1618;49.9089;-0.00021669;-7.3E-7;0;Globalstar
11.19034051;0.0001083;51.9941;88.8176;311.3583;48.7124;0.00066409;-4.6E-7;0;Globalstar
11.19034025;0.0001082;51.9942;88.2016;313.106;46.9649;-0.00044813;-8.1E-7;0;Globalstar
11.19034101;0.0001132;51.9943;85.9424;315.9806;44.0903;0.00066725;-4.6E-7;0;Globalstar
11.19034029;0.0001179;51.9945;82.4511;320.9599;39.1116;-0.00032445;-7.7E-7;0;Globalstar
11.19034127;0.0001189;51.9945;81.4243;322.27;37.8016;-0.00013013;-7.1E-7;0;Globalstar
11.19034148;0.0001225;51.9946;78.9597;325.8063;34.2658;-0.00048573;-8.2E-7;0;Globalstar
11.19034173;0.0001254;51.9948;75.6736;329.1645;30.9081;-0.00055343;-8.4E-7;0;Globalstar
11.1903412;0.0001268;51.9949;74.4413;330.8196;29.2533;-0.00075906;-9.0E-7;0;Globalstar
11.1903416;0.0001296;51.9951;72.1823;333.551;26.5223;-0.00034447;-7.7E-7;0;Globalstar
11.19034106;0.0001323;51.9953;69.9232;336.4102;23.6637;-0.00013979;-7.1E-7;0;Globalstar
11.19034088;0.0001345;51.9954;68.2802;338.7326;21.3418;8.6031E-5;-6.4E-7;0;Globalstar
11.19034034;0.0001359;51.9955;67.2533;340.0692;20.0055;3.58E-5;-6.6E-7;0;Globalstar
11.19034019;0.0001366;51.9957;65.6109;342.6078;17.4675;-0.00076252;-9.0E-7;0;Globalstar
11.19033973;0.0001392;51.9959;63.3519;345.3037;14.7722;-0.00065576;-8.7E-7;0;Globalstar
11.19033835;0.0001436;51.9963;59.45;350.2284;9.8488;-0.00087526;-9.4E-7;0;Globalstar
11.19033813;0.0001435;51.9963;59.0393;350.2695;9.8077;-0.00089776;-9.5E-7;0;Globalstar
11.19033749;0.0001446;51.9964;58.4233;350.7347;9.3426;-0.00095609;-9.7E-7;0;Globalstar
11.19033678;0.0001486;51.9966;56.1643;353.3056;6.7724;-0.00098343;-9.7E-7;0;Globalstar
11.1903361;0.0001519;51.9968;53.9054;356.1163;3.9625;-0.00096876;-9.7E-7;0;Globalstar
11.19033457;0.0001551;51.997;51.6465;358.7028;1.3768;-0.0011646;-1.03E-6;0;Globalstar
11.19033342;0.0001576;51.9971;49.3877;1.2325;358.8478;-0.0012331;-1.05E-6;0;Globalstar
11.19033268;0.00016;51.9973;47.1288;3.8642;356.217;-0.0011908;-1.04E-6;0;Globalstar
11.19033084;0.0001631;51.9975;44.87;6.416;353.666;-0.0014385;-1.12E-6;0;Globalstar
11.19032964;0.0001648;51.9976;43.2273;8.168;351.9147;-0.0015245;-1.14E-6;0;Globalstar
11.1903271;0.0001694;51.9979;39.1204;12.2835;347.8006;-0.0015253;-1.14E-6;0;Globalstar
11.19032493;0.0001714;51.998;36.6563;14.8572;345.2278;-0.0015283;-1.14E-6;0;Globalstar
11.19032294;0.0001741;51.9981;34.1921;17.705;342.3811;-0.0015294;-1.14E-6;0;Globalstar
11.19032264;0.0001745;51.9981;33.7815;18.3445;341.7417;-0.0014751;-1.13E-6;0;Globalstar
11.19032151;0.0001762;51.9982;31.9333;20.34;339.747;-0.0014205;-1.11E-6;0;Globalstar
11.19032007;0.000179;51.9983;29.6746;23.0841;337.0039;-0.0013326;-1.08E-6;0;Globalstar
11.190318;0.0001814;51.9983;27.4158;25.5761;334.5129;-0.0013105;-1.08E-6;0;Globalstar
11.19031681;0.0001838;51.9984;25.1571;27.4064;332.6832;-0.0012258;-1.05E-6;0;Globalstar
11.19031623;0.0001846;51.9984;24.541;27.9574;332.1324;-0.0012952;-1.07E-6;0;Globalstar
11.19031494;0.0001865;51.9985;22.693;29.7005;330.39;-0.0013475;-1.09E-6;0;Globalstar
11.19031252;0.0001893;51.9985;20.4343;31.9;328.1914;-0.0014641;-1.12E-6;0;Globalstar
11.19031089;0.0001921;51.9984;18.1755;34.2293;325.863;-0.0014995;-1.13E-6;0;Globalstar
11.19031026;0.0001934;51.9986;17.3541;34.8431;325.2495;-0.0014688;-1.12E-6;0;Globalstar
11.19030877;0.0001952;51.9986;15.3007;36.9855;323.1079;-0.0014137;-1.11E-6;0;Globalstar
11.19030726;0.0001969;51.9986;13.658;38.6018;321.4923;-0.001437;-1.11E-6;0;Globalstar
11.19030521;0.0001996;51.9987;11.194;40.7572;319.3377;-0.0013663;-1.09E-6;0;Globalstar
11.19030278;0.0002012;51.9986;8.9352;42.9294;317.1662;-0.0013316;-1.08E-6;0;Globalstar
11.19030134;0.0002035;51.9986;6.6765;44.968;315.1285;-0.0012929;-1.07E-6;0;Globalstar
11.19030042;0.0002041;51.9985;6.0604;45.4651;314.6315;-0.0012947;-1.07E-6;0;Globalstar
11.19029949;0.0002054;51.9985;4.4177;46.9567;313.1404;-0.001139;-1.02E-6;0;Globalstar
11.19029846;0.0002066;51.9985;2.7749;48.3834;311.7143;-0.001015;-9.8E-7;0;Globalstar
11.19029712;0.0002078;51.9984;1.5429;49.4235;310.6746;-0.0011235;-1.02E-6;0;Globalstar
11.19029614;0.0002089;51.9983;359.9002;50.987;309.1116;-0.0012212;-1.05E-6;0;Globalstar
11.19029402;0.0002108;51.9982;357.436;53.3021;306.7972;-0.0011656;-1.03E-6;0;Globalstar
11.19029226;0.0002123;51.9981;355.3825;55.1413;304.9586;-0.0012392;-1.05E-6;0;Globalstar
11.19029186;0.0002123;51.9981;355.1772;55.3476;304.7524;-0.0012878;-1.07E-6;0;Globalstar
11.1902893;0.0002144;51.998;352.9184;57.2249;302.8757;-0.0015063;-1.14E-6;0;Globalstar
11.19028803;0.0002163;51.9979;350.6596;59.1513;300.9499;-0.0013944;-1.1E-6;0;Globalstar
11.19028668;0.0002177;51.9978;348.4007;60.9752;299.1266;-0.0012713;-1.06E-6;0;Globalstar
11.19028492;0.0002187;51.9976;346.1419;62.9237;297.1785;-0.0011967;-1.04E-6;0;Globalstar
11.19028459;0.0002185;51.9975;345.9364;63.0259;297.0764;-0.0011296;-1.02E-6;0;Globalstar
11.1902844;0.0002186;51.9975;345.7311;63.2132;296.8891;-0.0011652;-1.03E-6;0;Globalstar
11.19028307;0.0002196;51.9974;343.6775;65.0759;295.0269;-0.0011246;-1.02E-6;0;Globalstar
11.19028279;0.0002201;51.9974;342.2401;66.2726;293.8305;-0.00090103;-9.5E-7;0;Globalstar
11.19028147;0.0002207;51.9973;341.4186;67.0492;293.054;-0.00096347;-9.7E-7;0;Globalstar
11.19028045;0.0002215;51.9972;339.7758;68.3833;291.7202;-0.0009248;-9.6E-7;0;Globalstar
11.19028005;0.0002218;51.9972;339.1597;68.957;291.1467;-0.00088825;-9.4E-7;0;Globalstar
11.19027835;0.0002226;51.997;336.9008;70.5601;289.5439;-0.0009749;-9.7E-7;0;Globalstar
11.19027782;0.0002229;51.997;336.4901;70.7657;289.3384;-0.0010757;-1.0E-6;0;Globalstar
11.19027733;0.0002231;51.9969;334.6419;72.403;287.7014;-0.00087873;-9.4E-7;0;Globalstar
11.19027597;0.0002239;51.9968;332.383;74.1445;285.9601;-0.00086066;-9.4E-7;0;Globalstar
11.19027383;0.0002253;51.9965;328.0705;76.9677;283.1374;-0.00081026;-9.2E-7;0;Globalstar
11.19027334;0.0002254;51.9965;327.249;77.5549;282.5503;-0.0007781;-9.1E-7;0;Globalstar
11.19027267;0.0002253;51.9964;325.4008;78.9972;281.1081;-0.00072061;-8.9E-7;0;Globalstar
11.19027239;0.0002254;51.9963;323.7579;80.2378;279.8676;-0.00066507;-8.7E-7;0;Globalstar
11.19027203;0.0002255;51.9963;323.1418;80.77;279.3355;-0.00067581;-8.8E-7;0;Globalstar
11.19027185;0.0002256;51.9962;321.4989;81.9178;278.1877;-0.00056322;-8.4E-7;0;Globalstar
11.19027153;0.0002259;51.9962;320.8828;82.3638;277.7418;-0.00059697;-8.5E-7;0;Globalstar
11.190271;0.0002264;51.9961;318.6239;83.8538;276.252;-0.00048598;-8.2E-7;0;Globalstar
11.19027138;0.0002401;51.9994;316.5649;83.4142;276.6903;-0.00042628;-8.0E-7;0;Globalstar
11.19027051;0.0002263;51.9961;316.1595;85.6075;274.4983;-0.00037461;-7.8E-7;0;Globalstar
11.19027006;0.0002265;51.996;313.9005;86.986;273.1199;-0.00037639;-7.8E-7;0;Globalstar
11.19026967;0.0002266;51.996;311.6415;88.5149;271.5911;-0.00037769;-7.9E-7;0;Globalstar
11.19026953;0.0002266;51.9959;309.3826;89.9581;270.1479;-0.00035688;-7.8E-7;0;Globalstar
11.19026936;0.0002265;51.9959;307.3289;91.3122;268.7937;-0.00036012;-7.8E-7;0;Globalstar
11.19026919;0.0002264;51.9959;307.1236;91.5002;268.6057;-0.00038996;-7.9E-7;0;Globalstar
11.19026919;0.0002266;51.9958;304.6592;92.9925;267.1134;-0.00030116;-7.6E-7;0;Globalstar
11.19026914;0.0002265;51.9958;303.0163;94.0356;266.0702;-0.00029705;-7.6E-7;0;Globalstar
11.19026933;0.0002262;51.9958;302.4002;94.4966;265.6092;-0.00025951;-7.5E-7;0;Globalstar
11.19026925;0.0002264;51.9958;300.1412;95.6501;264.4557;-0.00014365;-7.1E-7;0;Globalstar
11.19026931;0.000226;51.9957;298.909;96.587;263.5187;-9.6151E-5;-7.0E-7;0;Globalstar
11.19026956;0.0002261;51.9957;297.8822;97.2723;262.8333;2.2844E-5;-6.6E-7;0;Globalstar
11.19026966;0.0002258;51.9957;297.6769;97.5032;262.6024;5.4212E-5;-6.5E-7;0;Globalstar
11.19026973;0.0002268;51.9957;295.6231;98.526;261.5797;0.00017219;-6.1E-7;0;Globalstar
11.19027023;0.0002261;51.9957;293.3641;100.1423;259.9632;0.00022751;-6.0E-7;0;Globalstar
11.19027021;0.0002263;51.9957;290.8998;101.3526;258.7528;0.00013201;-6.3E-7;0;Globalstar
11.19027056;0.0002253;51.9957;288.6409;103.0064;257.0988;0.00021852;-6.0E-7;0;Globalstar
11.19027049;0.0002249;51.9958;287.4088;103.812;256.293;0.00014841;-6.2E-7;0;Globalstar
11.19027047;0.0002243;51.9958;286.3821;104.6046;255.5003;0.00015102;-6.2E-7;0;Globalstar
11.19027054;0.0002239;51.9958;284.1232;106.0077;254.097;0.00022281;-6.0E-7;0;Globalstar
11.19027056;0.000223;51.9957;281.8644;107.4593;252.6451;0.00022137;-6.0E-7;0;Globalstar
11.19027054;0.0002225;51.9957;279.6055;108.8341;251.27;0.00022419;-6.0E-7;0;Globalstar
11.19027058;0.000222;51.9957;278.1681;109.8638;250.2401;0.0001434;-6.2E-7;0;Globalstar
11.19027036;0.0002213;51.9955;275.0878;111.6425;248.4611;2.0341E-6;-6.7E-7;0;Globalstar
11.19027035;0.0002208;51.9955;272.8291;113.0311;247.0722;-5.7916E-5;-6.9E-7;0;Globalstar
11.19027054;0.0002186;51.9954;270.3648;114.7916;245.3111;0.00013319;-6.3E-7;0;Globalstar
11.19027057;0.0002179;51.9954;268.722;115.9449;244.1576;0.00012493;-6.3E-7;0;Globalstar
11.1902707;0.0002174;51.9953;268.1059;116.3433;243.759;0.00018178;-6.1E-7;0;Globalstar
11.19027061;0.0002174;51.9953;265.8469;117.7827;242.3194;0.00021665;-6.0E-7;0;Globalstar
11.19027086;0.0002154;51.9952;263.5881;119.3968;240.7047;0.00017538;-6.1E-7;0;Globalstar
11.19027075;0.0002146;51.9951;261.3293;120.8336;239.2675;0.00012022;-6.3E-7;0;Globalstar
11.19027062;0.0002139;51.995;259.0705;122.3075;237.7932;6.6248E-5;-6.5E-7;0;Globalstar
11.19027046;0.0002131;51.9949;256.8116;123.7008;236.3995;7.3401E-6;-6.7E-7;0;Globalstar
11.19027048;0.0002122;51.9948;254.9635;124.838;235.262;1.2658E-5;-6.6E-7;0;Globalstar
11.19027046;0.0002112;51.9947;252.91;126.1323;233.9673;3.6272E-5;-6.6E-7;0;Globalstar
11.1902705;0.0002103;51.9945;250.4459;127.5801;232.5189;0.00012213;-6.3E-7;0;Globalstar
